{
  "type": "FeatureCollection",
  "features": [
    {
      "type": "Feature",
      "properties": {
        "norad_id": 36828,
        "name": "BEIDOU-2 IGSO-1 (C06)",
        "group": "beidou",
        "lat": -33.974111186653616,
        "lon": 135.51310132777192,
        "alt_km": 35828.5462057745,
        "timestamp": "2025-12-20T18:51:31.979307+00:00",
        "meta_object_name": "BEIDOU-2 IGSO-1 (C06)",
        "meta_object_id": "2010-036A",
        "meta_epoch": "2025-12-14T21:38:21.623424",
        "meta_mean_motion": 1.00275796,
        "meta_eccentricity": 0.00512569,
        "meta_inclination": 54.2866,
        "meta_ra_of_asc_node": 164.6279,
        "meta_arg_of_pericenter": 215.8888,
        "meta_mean_anomaly": 135.7931,
        "meta_ephemeris_type": 0,
        "meta_classification_type": "U",
        "meta_norad_cat_id": 36828,
        "meta_element_set_no": 999,
        "meta_rev_at_epoch": 5624,
        "meta_bstar": 0,
        "meta_mean_motion_dot": -2.4e-07,
        "meta_mean_motion_ddot": 0,
        "tle_line1": "1 36828U 10036A   25348.90163916 -.00000024  00000+0  00000+0 0  9999",
        "tle_line2": "2 36828  54.2866 164.6279 0051256 215.8888 135.7931  1.00275796 56247"
      },
      "geometry": {
        "type": "Point",
        "coordinates": [
          135.51310132777192,
          -33.974111186653616
        ]
      }
    },
    {
      "type": "Feature",
      "properties": {
        "norad_id": 37210,
        "name": "BEIDOU-2 G4 (C04)",
        "group": "beidou",
        "lat": 3.1323981400933136,
        "lon": 172.47660364932935,
        "alt_km": 35785.84099010537,
        "timestamp": "2025-12-20T18:51:31.979343+00:00",
        "meta_object_name": "BEIDOU-2 G4 (C04)",
        "meta_object_id": "2010-057A",
        "meta_epoch": "2025-12-20T13:59:26.739168",
        "meta_mean_motion": 1.00272023,
        "meta_eccentricity": 0.00104282,
        "meta_inclination": 3.2031,
        "meta_ra_of_asc_node": 69.9094,
        "meta_arg_of_pericenter": 192.8314,
        "meta_mean_anomaly": 196.6191,
        "meta_ephemeris_type": 0,
        "meta_classification_type": "U",
        "meta_norad_cat_id": 37210,
        "meta_element_set_no": 999,
        "meta_rev_at_epoch": 5550,
        "meta_bstar": 0,
        "meta_mean_motion_dot": -9e-07,
        "meta_mean_motion_ddot": 0,
        "tle_line1": "1 37210U 10057A   25354.58294837 -.00000090  00000+0  00000+0 0  9999",
        "tle_line2": "2 37210   3.2031  69.9094 0010428 192.8314 196.6191  1.00272023 55509"
      },
      "geometry": {
        "type": "Point",
        "coordinates": [
          172.47660364932935,
          3.1323981400933136
        ]
      }
    },
    {
      "type": "Feature",
      "properties": {
        "norad_id": 37256,
        "name": "BEIDOU-2 IGSO-2 (C07)",
        "group": "beidou",
        "lat": -19.166643569491757,
        "lon": 112.33038744558134,
        "alt_km": 35584.72351004452,
        "timestamp": "2025-12-20T18:51:31.979359+00:00",
        "meta_object_name": "BEIDOU-2 IGSO-2 (C07)",
        "meta_object_id": "2010-068A",
        "meta_epoch": "2025-12-20T13:52:30.782784",
        "meta_mean_motion": 1.00284035,
        "meta_eccentricity": 0.00484196,
        "meta_inclination": 47.8716,
        "meta_ra_of_asc_node": 274.0527,
        "meta_arg_of_pericenter": 216.3627,
        "meta_mean_anomaly": 275.0459,
        "meta_ephemeris_type": 0,
        "meta_classification_type": "U",
        "meta_norad_cat_id": 37256,
        "meta_element_set_no": 999,
        "meta_rev_at_epoch": 5500,
        "meta_bstar": 0,
        "meta_mean_motion_dot": -1.89e-06,
        "meta_mean_motion_ddot": 0,
        "tle_line1": "1 37256U 10068A   25354.57813406 -.00000189  00000+0  00000+0 0  9998",
        "tle_line2": "2 37256  47.8716 274.0527 0048419 216.3627 275.0459  1.00284035 55003"
      },
      "geometry": {
        "type": "Point",
        "coordinates": [
          112.33038744558134,
          -19.166643569491757
        ]
      }
    },
    {
      "type": "Feature",
      "properties": {
        "norad_id": 37384,
        "name": "BEIDOU-2 IGSO-3 (C08)",
        "group": "beidou",
        "lat": 59.70625809558681,
        "lon": 106.57188027310313,
        "alt_km": 35832.30150387498,
        "timestamp": "2025-12-20T18:51:31.979372+00:00",
        "meta_object_name": "BEIDOU-2 IGSO-3 (C08)",
        "meta_object_id": "2011-013A",
        "meta_epoch": "2025-12-20T13:44:20.685696",
        "meta_mean_motion": 1.00268973,
        "meta_eccentricity": 0.0035383,
        "meta_inclination": 62.1535,
        "meta_ra_of_asc_node": 41.8418,
        "meta_arg_of_pericenter": 187.6388,
        "meta_mean_anomaly": 173.3807,
        "meta_ephemeris_type": 0,
        "meta_classification_type": "U",
        "meta_norad_cat_id": 37384,
        "meta_element_set_no": 999,
        "meta_rev_at_epoch": 5387,
        "meta_bstar": 0,
        "meta_mean_motion_dot": -1.64e-06,
        "meta_mean_motion_ddot": 0,
        "tle_line1": "1 37384U 11013A   25354.57246164 -.00000164  00000+0  00000+0 0  9995",
        "tle_line2": "2 37384  62.1535  41.8418 0035383 187.6388 173.3807  1.00268973 53876"
      },
      "geometry": {
        "type": "Point",
        "coordinates": [
          106.57188027310313,
          59.70625809558681
        ]
      }
    },
    {
      "type": "Feature",
      "properties": {
        "norad_id": 37763,
        "name": "BEIDOU-2 IGSO-4 (C09)",
        "group": "beidou",
        "lat": -43.98000820889815,
        "lon": 123.80603542561937,
        "alt_km": 35577.96756715028,
        "timestamp": "2025-12-20T18:51:31.979385+00:00",
        "meta_object_name": "BEIDOU-2 IGSO-4 (C09)",
        "meta_object_id": "2011-038A",
        "meta_epoch": "2025-12-17T23:29:21.564384",
        "meta_mean_motion": 1.00281312,
        "meta_eccentricity": 0.01493143,
        "meta_inclination": 54.5836,
        "meta_ra_of_asc_node": 167.2999,
        "meta_arg_of_pericenter": 230.2426,
        "meta_mean_anomaly": 136.1954,
        "meta_ephemeris_type": 0,
        "meta_classification_type": "U",
        "meta_norad_cat_id": 37763,
        "meta_element_set_no": 999,
        "meta_rev_at_epoch": 5283,
        "meta_bstar": 0,
        "meta_mean_motion_dot": 6.5e-07,
        "meta_mean_motion_ddot": 0,
        "tle_line1": "1 37763U 11038A   25351.97872181  .00000065  00000+0  00000+0 0  9997",
        "tle_line2": "2 37763  54.5836 167.2999 0149314 230.2426 136.1954  1.00281312 52838"
      },
      "geometry": {
        "type": "Point",
        "coordinates": [
          123.80603542561937,
          -43.98000820889815
        ]
      }
    },
    {
      "type": "Feature",
      "properties": {
        "norad_id": 37948,
        "name": "BEIDOU-2 IGSO-5 (C10)",
        "group": "beidou",
        "lat": -8.538340953777812,
        "lon": 101.5029762355575,
        "alt_km": 35383.658416263395,
        "timestamp": "2025-12-20T18:51:31.979398+00:00",
        "meta_object_name": "BEIDOU-2 IGSO-5 (C10)",
        "meta_object_id": "2011-073A",
        "meta_epoch": "2025-12-20T15:54:30.130272",
        "meta_mean_motion": 1.00289655,
        "meta_eccentricity": 0.01098544,
        "meta_inclination": 48.0055,
        "meta_ra_of_asc_node": 273.7617,
        "meta_arg_of_pericenter": 222.3057,
        "meta_mean_anomaly": 285.4855,
        "meta_ephemeris_type": 0,
        "meta_classification_type": "U",
        "meta_norad_cat_id": 37948,
        "meta_element_set_no": 999,
        "meta_rev_at_epoch": 5134,
        "meta_bstar": 0,
        "meta_mean_motion_dot": -1.52e-06,
        "meta_mean_motion_ddot": 0,
        "tle_line1": "1 37948U 11073A   25354.66284873 -.00000152  00000+0  00000+0 0  9993",
        "tle_line2": "2 37948  48.0055 273.7617 0109854 222.3057 285.4855  1.00289655 51342"
      },
      "geometry": {
        "type": "Point",
        "coordinates": [
          101.5029762355575,
          -8.538340953777812
        ]
      }
    },
    {
      "type": "Feature",
      "properties": {
        "norad_id": 38091,
        "name": "BEIDOU-2 G5 (C05)",
        "group": "beidou",
        "lat": 0.06232293310865497,
        "lon": 71.37404567096654,
        "alt_km": 35821.76870407096,
        "timestamp": "2025-12-20T18:51:31.979409+00:00",
        "meta_object_name": "BEIDOU-2 G5 (C05)",
        "meta_object_id": "2012-008A",
        "meta_epoch": "2025-12-19T16:03:31.750272",
        "meta_mean_motion": 1.00268606,
        "meta_eccentricity": 0.0012969,
        "meta_inclination": 3.1258,
        "meta_ra_of_asc_node": 70.6861,
        "meta_arg_of_pericenter": 231.3522,
        "meta_mean_anomaly": 86.1393,
        "meta_ephemeris_type": 0,
        "meta_classification_type": "U",
        "meta_norad_cat_id": 38091,
        "meta_element_set_no": 999,
        "meta_rev_at_epoch": 5056,
        "meta_bstar": 0,
        "meta_mean_motion_dot": 7.9e-07,
        "meta_mean_motion_ddot": 0,
        "tle_line1": "1 38091U 12008A   25353.66911748  .00000079  00000+0  00000+0 0  9996",
        "tle_line2": "2 38091   3.1258  70.6861 0012969 231.3522  86.1393  1.00268606 50560"
      },
      "geometry": {
        "type": "Point",
        "coordinates": [
          71.37404567096654,
          0.06232293310865497
        ]
      }
    }
  ]
}